[{"OBJECT_NAME":"STARLINK-35868","OBJECT_ID":"2025-268Y","EPOCH":"2026-03-09T04:27:09.131040","MEAN_MOTION":15.27589789,"ECCENTRICITY":0.00030314,"INCLINATION":43.0033,"RA_OF_ASC_NODE":349.8208,"ARG_OF_PERICENTER":249.1192,"MEAN_ANOMALY":110.9336,"EPHEMERIS_TYPE":0,"CLASSIFICATION_TYPE":"U","NORAD_CAT_ID":66579,"ELEMENT_SET_NO":999,"REV_AT_EPOCH":1788,"BSTAR":0.0010188969,"MEAN_MOTION_DOT":0.00027892,"MEAN_MOTION_DDOT":0},{"OBJECT_NAME":"KSLV-II R\/B","OBJECT_ID":"2023-072H","EPOCH":"2026-03-09T20:13:26.441760","MEAN_MOTION":15.33109439,"ECCENTRICITY":0.00241884,"INCLINATION":97.4991,"RA_OF_ASC_NODE":274.152,"ARG_OF_PERICENTER":318.2938,"MEAN_ANOMALY":41.646,"EPHEMERIS_TYPE":0,"CLASSIFICATION_TYPE":"U","NORAD_CAT_ID":56750,"ELEMENT_SET_NO":999,"REV_AT_EPOCH":15516,"BSTAR":0.00028309532,"MEAN_MOTION_DOT":9.057e-5,"MEAN_MOTION_DDOT":0}]
